STARLINK-37354          
1 68743U 26082R   26113.54522265 -.01104145  00000+0 -57583-2 0  9997
2 68743  97.2881 335.6840 0000725  69.3007 290.8340 15.83550123  1182
