{
  "norad_id": 68743,
  "name": "STARLINK-37354",
  "history": [
    {
      "epoch": "2026-04-23T13:05:07.236960Z",
      "apogee_km": 320.8961978950174,
      "perigee_km": 319.9245066161002,
      "latitude_deg": -3.1187006518314146e-05,
      "longitude_deg": -72.18706738347542,
      "height_km": 323.4169642410404,
      "semi_major_axis_km": 6698.5473522555585,
      "eccentricity": 7.253e-05,
      "inclination_deg": 97.2881,
      "raan_deg": 335.684,
      "arg_perigee_deg": 69.3007,
      "mean_anomaly_deg": 290.834,
      "mean_motion_rev_day": 15.83550123
    }
  ]
}